[
    {
        "Altitude(m)": 604234.5887816793,
        "Argument of Periapsis(deg)": 0.0,
        "Eccentricity": 0.0,
        "Inclination(deg)": 60.0,
        "Latitude(deg)": 14.117119155070982,
        "Longitude(deg)": -88.27266829073598,
        "Mean Anomaly(deg)": -196.36360000000002,
        "RAAN(deg)": 200.0,
        "Satellite Name": "Test1 890",
        "Satellite Number": 890,
        "Semi-Major Axis(m)": 6980739.136638005,
        "Time(s)": 0
    },
    {
        "Altitude(m)": 604223.4180507234,
        "Argument of Periapsis(deg)": 0.00010418945913296404,
        "Eccentricity": 0.0,
        "Inclination(deg)": 60.0,
        "Latitude(deg)": 13.582255430850477,
        "Longitude(deg)": -87.98575942646399,
        "Mean Anomaly(deg)": -195.74349385453817,
        "RAAN(deg)": 199.99957995086027,
        "Satellite Name": "Test1 890",
        "Satellite Number": 890,
        "Semi-Major Axis(m)": 6980739.136638005,
        "Time(s)": 10
    }
]